TIANMU-1 21             
1 58662U 23208C   26169.74689069  .00007572  00000+0  22462-3 0  9994
2 58662  97.4512 289.3786 0005849 317.0748  43.0038 15.35099516137807
TIANMU-1 22             
1 58663U 23208D   26169.70663356  .00005775  00000+0  19496-3 0  9998
2 58663  97.4506 285.9488 0003051 358.1673   1.9557 15.31075241137565
TIANMU-1 15             
1 58700U 24004A   26169.73684760  .00004492  00000+0  17210-3 0  9997
2 58700  97.4669 355.9270 0006542 357.0183   3.1015 15.27036511136010
TIANMU-1 16             
1 58701U 24004B   26169.72636365  .00004542  00000+0  17541-3 0  9998
2 58701  97.4616 355.1517 0005669   2.6856 357.4412 15.26761426136013
TIANMU-1 17             
1 58702U 24004C   26169.77735816  .00004468  00000+0  17262-3 0  9992
2 58702  97.4643 355.6882 0005371   9.0184 351.1150 15.26761041136012
TIANMU-1 18             
1 58703U 24004D   26169.75348076  .00004275  00000+0  16404-3 0  9992
2 58703  97.4661 355.9208 0003880  10.3327 349.7990 15.27018092136012
INSAT-3DS               
1 58990U 24033A   26169.73613456 -.00000162  00000+0  00000+0 0  9990
2 58990   0.0452 107.1760 0001084 328.4251 178.4754  1.00271113 47085
METEOR-M2 4             
1 59051U 24039A   26169.73095826  .00000001  00000+0  20187-4 0  9994
2 59051  98.7011 129.0096 0007374 156.6976 203.4537 14.22429655119483
GOES 19                 
1 60133U 24119A   26169.59478904 -.00000254  00000+0  00000+0 0  9990
2 60133   0.0409 169.8991 0000353   4.4442 231.4208  1.00270829  6971
MTG-S1                  
1 64723U 25143A   26168.96740449 -.00000037  00000+0  00000+0 0  9992
2 64723   0.6022 339.1600 0000787  17.8158 254.0253  1.00270537  3423
METOP-SGA1              
1 65159U 25172A   26167.15332899  .00000049  00000+0  42000-4 0  9997
2 65159  98.6644 226.8998 0000902  93.8213 266.3067 14.21509720 43644
FENGYUN 3H              
1 65815U 25219A   26169.59131361  .00000040  00000+0  39168-4 0  9991
2 65815  98.6768 110.3331 0001599  76.1674 283.9680 14.19920627 37588
