OBJECT_NAME,OBJECT_ID,EPOCH,MEAN_MOTION,ECCENTRICITY,INCLINATION,RA_OF_ASC_NODE,ARG_OF_PERICENTER,MEAN_ANOMALY,EPHEMERIS_TYPE,CLASSIFICATION_TYPE,NORAD_CAT_ID,ELEMENT_SET_NO,REV_AT_EPOCH,BSTAR,MEAN_MOTION_DOT,MEAN_MOTION_DDOT
TIANMU-1 21,2023-208C,2026-06-18T17:55:31.355616,15.35099516,.0005849,97.4512,289.3786,317.0748,43.0038,0,U,58662,999,13780,.22462E-3,.7572E-4,0
TIANMU-1 22,2023-208D,2026-06-18T16:57:33.139584,15.31075241,.0003051,97.4506,285.9488,358.1673,1.9557,0,U,58663,999,13756,.19496E-3,.5775E-4,0
TIANMU-1 15,2024-004A,2026-06-18T17:41:03.632640,15.27036511,.0006542,97.4669,355.9270,357.0183,3.1015,0,U,58700,999,13601,.1721E-3,.4492E-4,0
TIANMU-1 16,2024-004B,2026-06-18T17:25:57.819360,15.26761426,.0005669,97.4616,355.1517,2.6856,357.4412,0,U,58701,999,13601,.17541E-3,.4542E-4,0
TIANMU-1 17,2024-004C,2026-06-18T18:39:23.745024,15.26761041,.0005371,97.4643,355.6882,9.0184,351.1150,0,U,58702,999,13601,.17262E-3,.4468E-4,0
TIANMU-1 18,2024-004D,2026-06-18T18:05:00.737664,15.27018092,.000388,97.4661,355.9208,10.3327,349.7990,0,U,58703,999,13601,.16404E-3,.4275E-4,0
INSAT-3DS,2024-033A,2026-06-18T17:40:02.025984,1.00271113,.0001084,0.0452,107.1760,328.4251,178.4754,0,U,58990,999,4708,0,-.162E-5,0
METEOR-M2 4,2024-039A,2026-06-18T17:32:34.793664,14.22429655,.0007374,98.7011,129.0096,156.6976,203.4537,0,U,59051,999,11948,.20187E-4,.1E-7,0
GOES 19,2024-119A,2026-06-18T14:16:29.773056,1.00270829,.0000353,0.0409,169.8991,4.4442,231.4208,0,U,60133,999,697,0,-.254E-5,0
MTG-S1,2025-143A,2026-06-17T23:13:03.747936,1.00270537,.00007875,0.6022,339.1600,17.8158,254.0253,0,U,64723,999,342,0,-.37E-6,0
METOP-SGA1,2025-172A,2026-06-16T03:40:47.624736,14.21509720,.0000902,98.6644,226.8998,93.8213,266.3067,0,U,65159,999,4364,.41999845E-4,.49E-6,0
FENGYUN 3H,2025-219A,2026-06-18T14:11:29.495904,14.19920627,.0001599,98.6768,110.3331,76.1674,283.9680,0,U,65815,999,3758,.39168E-4,.4E-6,0
